UNKNOWN                 
1 82854U          25216.15531717  .00001238  00000+0  97755-3 0  9992
2 82854  82.6918 166.9481 0127078 293.7122  65.0750 13.87250207 62050
UNKNOWN                 
1 82873U          25217.37517360  .00002199  00000+0  98791-3 0  9994
2 82873 100.0052  93.9905 0038802 286.4109  73.2801 14.23264759602826
UNKNOWN                 
1 82875U          25217.70570322  .00000528  00000+0  15218-3 0  9997
2 82875  98.6595 204.3530 0378141 293.2994  62.8808 14.14840482526228
UNKNOWN                 
1 82893U          25220.52776291  .00005220  00000+0  20795-2 0  9993
2 82893  98.9618 331.9028 0025332  56.0597 304.2987 14.28849132405932
UNKNOWN                 
1 82912U          25218.38649555  .00002061  00000+0  88292-3 0  9995
2 82912  65.8365 109.7501 0778454 327.0410  28.4285 13.26569587562297
UNKNOWN                 
1 82961U          25216.91764769  .00006589  00000+0  11027-1 0  9990
2 82961  99.9015  18.0340 0394454 310.4465  46.2869 13.19773897996586
UNKNOWN                 
1 82965U 70025    25220.42691065  .00000736  00000+0  10566-2 0  9993
2 82965 100.1224 295.8703 0002976 139.1880 220.9481 13.59654462507283
UNKNOWN                 
1 83903U          25220.31411468 -.00000090  00000+0  00000+0 0  9990
2 83903   6.4962 291.7175 0125312 246.8194 161.3433  0.99112007 42413
UNKNOWN                 
1 83934U          25219.83702141 -.00000095  00000+0  00000+0 0  9995
2 83934   6.0694 298.3468 0230534 266.5980  91.8561  1.02662915 43983
UNKNOWN                 
1 83970U          25217.44939608  .00004490  00000+0  46533-2 0  9996
2 83970  18.3370   5.7296 5080157 234.0820  67.6007  5.30961875189328
UNKNOWN                 
1 84006U          25220.40655693 -.00000001  00000+0  00000+0 0  9997
2 84006  22.7086 202.6189 6102337  17.1753 356.6007  2.16230579 81493
UNKNOWN                 
1 84188U          25219.48949061  .00007000  00000+0  93615-2 0  9991
2 84188  64.9184 359.0932 3895466  32.7586 346.3694  7.19596536 32029
UNKNOWN                 
1 84236U          25219.75462198 -.00000322  00000+0 -14548-2 0  9996
2 84236   9.3537  31.8256 6884486 341.8755   2.3355  2.62434124199368
UNKNOWN                 
1 84292U          25215.39320061  .00004221  00000+0  21371-2 0  9998
2 84292  23.8902 342.1576 4580997 283.7631  30.7424  6.20172469219909
UNKNOWN                 
1 84406U          25221.23556894  .00000404  00000+0  23518-2 0  9994
2 84406 101.7149   3.8026 0042385 284.0060 197.1172 12.67130800 33415
UNKNOWN                 
1 84407U          25216.69323363 -.00000196  00000+0  18172-2 0  9991
2 84407  19.5602   0.6486 7202592 352.0140   0.7157  2.05743641 73196
UNKNOWN                 
1 84437U          25201.76515199 -.00000116  00000+0  00000+0 0  9996
2 84437  18.6857 293.2826 7024163 193.7565 126.5435  1.97299977 10089
UNKNOWN                 
1 84575U          25219.97775099 -.00000181  00000+0 -22642-2 0  9990
2 84575  18.0461 200.7379 7128736 304.7555   7.2965  2.19895709 62672
UNKNOWN                 
1 84932U          25219.43653538  .00000547  00000+0  56235-2 0  9990
2 84932   2.3967 312.2730 6551725 279.4713  80.5975  2.99704992127967
UNKNOWN                 
1 85004U          25219.71139341  .00000712  00000+0  23366-3 0  9997
2 85004  98.4015 192.8105 0047260 182.6757 354.6057 14.40636642612608
UNKNOWN                 
1 85010U          25218.59689231  .00000732  00000+0  81485-3 0  9995
2 85010  99.2617  84.4018 0023745 230.6751 157.3522 13.74700989586316
UNKNOWN                 
1 85015U          25218.89603035  .00000372  00000+0  79943-4 0  9998
2 85015  74.0484 282.8082 0015838 225.0008 134.9876 14.62075656623922
UNKNOWN                 
1 85023U          25219.44540784  .00015801  00000+0  29006-2 0  9996
2 85023  99.8506 208.8375 0002299  52.3297 100.7661 14.65814308610132
UNKNOWN                 
1 85027U          25220.23831158  .00000095  00000+0  16366-3 0  9992
2 85027  66.0411  51.2823 0184917 255.8262 102.2196 13.74172054587233
UNKNOWN                 
1 85047U          25220.56403059  .00006951  00000+0  12047-1 0  9992
2 85047 102.3412 159.2841 0145722 319.7076  39.3317 13.40262191559737
UNKNOWN                 
1 85061U          25218.19158374  .00003319  00000+0  13074-1 0  9997
2 85061 102.3863 190.4510 0295651  76.6697 305.7130 12.75900221539380
UNKNOWN                 
1 85100U          25220.34947081  .00000242  00000+0  84125-4 0  9992
2 85100  74.0446  96.4239 0012395 351.6244 131.2018 14.40564526615149
UNKNOWN                 
1 85106U          25220.11748936  .00000400  00000+0  48870-3 0  9993
2 85106 100.0544 314.7913 0008921 339.1109 140.2330 13.72688401585696
UNKNOWN                 
1 85151U 86019    25220.39159387  .00008733  00000+0  13869-2 0  9999
2 85151  98.4143  79.5582 0009210 170.1811 189.9577 14.72331703460904
UNKNOWN                 
1 85210U 75052    25220.34981722  .00001086  00000+0  10741-2 0  9991
2 85210  99.8456 357.9978 0215231 277.6257 108.2919 13.71254251584836
UNKNOWN                 
1 85217U          25218.01260248  .00003360  00000+0  90296-3 0  9994
2 85217  98.0290 320.9501 0211861 156.7482 204.3465 14.36180641609378
UNKNOWN                 
1 85237U          25220.31954434  .00004028  00000+0  90762-3 0  9999
2 85237  65.5339 186.0561 0512102  86.1275 279.8164 13.98968954590659
UNKNOWN                 
1 85238U          25220.65278074  .00000002  00000+0  36974-4 0  9990
2 85238  99.0465 153.5524 0063246 180.8298 300.0727 13.88310805593343
UNKNOWN                 
1 85246U          25218.83960421  .00001137  00000+0  42270-3 0  9995
2 85246  97.9897 234.3627 0223600 321.3865  37.1503 14.21000636604905
UNKNOWN                 
1 85373U          25220.01675689  .00001352  00000+0  95950-3 0  9990
2 85373 100.4355 238.6363 0047157 212.8630 175.8183 13.99299519306833
UNKNOWN                 
1 85409U          25207.95017478 -.00000070  00000+0  00000+0 0  9999
2 85409  97.4528 286.1422 0004713 185.5891 220.9074 15.22068396    62
UNKNOWN                 
1 87014U          25218.84505874  .00001782  00000+0  28162-2 0  9997
2 87014 100.5022 176.0383 0041068 182.9099 205.6720 13.51054128573644
UNKNOWN                 
1 87029U 99025    25220.55960799  .00000591  00000+0  38825-3 0  9995
2 87029  98.7709 260.2162 0081423 243.2832 115.9985 14.04128024575291
UNKNOWN                 
1 87042U 00055    25220.59192713  .00000396  00000+0  26059-3 0  9991
2 87042  98.7303 268.2616 0044870  91.2815 269.3495 14.06830572536225
UNKNOWN                 
1 87051U          25219.64409633  .00000552  00000+0  21064-3 0  9992
2 87051  65.7265 197.1526 0728560 199.0363 158.2107 13.45053328571487
UNKNOWN                 
1 87054U          25219.84210007  .00002189  00000+0  12627-2 0  9994
2 87054 100.1021  83.7473 0014251 335.9657  24.0843 14.10333153598438
UNKNOWN                 
1 87071U 68097    25220.57377008  .00004291  00000+0  15084-2 0  9996
2 87071  61.2187 286.2503 0497562 175.1018 185.5151 13.83916765585016
UNKNOWN                 
1 87074U 77121    25210.43620386  .00000228  00000+0  31322-3 0  9991
2 87074  66.1401 229.1742 0149666 340.5942  18.9459 13.71439682584492
UNKNOWN                 
1 87113U          25218.72446550  .00092592  00000+0  22632-2 0  9994
2 87113  65.6204 115.9399 0102169 261.7813  97.1731 15.35012531616219
UNKNOWN                 
1 87129U 76077    25216.19912845  .00000098  00000+0  10451-2 0  9998
2 87129 102.2654 305.6052 0028170 324.6876  35.2322 12.42747812530456
UNKNOWN                 
1 87159U          25214.53866730  .00001155  00000+0  13521-2 0  9997
2 87159  90.3437  64.6660 0105516 290.6949  68.2924 13.65643704538649
UNKNOWN                 
1 87163U          25218.93132472  .00001561  00000+0  49858-3 0  9993
2 87163  65.5990 191.2571 0646868 122.0155 244.5436 13.62897348560090
UNKNOWN                 
1 87164U          25220.58347788  .00004530  00000+0  96710-3 0  9994
2 87164  65.2061 333.5969 0099751 115.8217 245.3213 14.56836124617387
UNKNOWN                 
1 87204U          25220.59915157  .00001468  00000+0  59553-3 0  9992
2 87204  98.5516  83.9578 0046508 337.0932  22.8175 14.28567483607429
UNKNOWN                 
1 87211U          25219.24991389  .00002255  00000+0  64735-3 0  9994
2 87211  99.0784 210.1096 0054406 176.2500 199.3906 14.45127139689352
UNKNOWN                 
1 87214U          25219.42990511  .00001872  00000+0  17097-2 0  9995
2 87214 100.3198 205.7003 0072265 218.2181 141.3834 13.83552576582631
UNKNOWN                 
1 87237U          25218.94717541  .00000220  00000+0  20135-3 0  9990
2 87237  99.2746 274.5959 0102375 269.5519 270.2305 13.91610186593981
UNKNOWN                 
1 87239U 81053    25217.64744191  .00007336  00000+0  19317-2 0  9990
2 87239  82.8748 192.1520 0024709  88.1901 272.2125 14.48768284609162
UNKNOWN                 
1 87245U 71015    25220.20871000  .00007198  00000+0  14566-2 0  9997
2 87245  65.6490  25.6662 0447293 184.0914 351.9494 14.13805312596307
UNKNOWN                 
1 87271U 71015    25220.37903601  .00003098  00000+0  59748-3 0  9994
2 87271  65.7529 215.2783 0431540 140.5039 222.8359 14.19232230594420
UNKNOWN                 
1 87280U          25220.60119602  .00000203  00000+0  43766-3 0  9994
2 87280  64.6144 187.3068 0130243 285.4754  73.1933 13.48409200516844
UNKNOWN                 
1 87293U          25219.45522834  .00007023  00000+0  14973-2 0  9998
2 87293  65.9007 122.7436 0424811  69.5709 295.0454 14.15587319595966
UNKNOWN                 
1 87300U          25217.85751167  .00001211  00000+0  87421-3 0  9994
2 87300 100.0728 187.5470 0027311 280.9751  78.8337 13.98856573595095
UNKNOWN                 
1 87304U          25220.22548666  .00001204  00000+0  18441-3 0  9999
2 87304  74.0166 208.4731 0019031 214.6815 145.3119 14.74772002627827
